[{"OBJECT_NAME":"STARLINK-32578","OBJECT_ID":"2024-210W","EPOCH":"2026-03-08T07:48:49.555584","MEAN_MOTION":15.27606556,"ECCENTRICITY":7.266e-5,"INCLINATION":42.9997,"RA_OF_ASC_NODE":187.3287,"ARG_OF_PERICENTER":232.2096,"MEAN_ANOMALY":127.869,"EPHEMERIS_TYPE":0,"CLASSIFICATION_TYPE":"U","NORAD_CAT_ID":61979,"ELEMENT_SET_NO":999,"REV_AT_EPOCH":7471,"BSTAR":0.0015408954,"MEAN_MOTION_DOT":0.00042418,"MEAN_MOTION_DDOT":0},{"OBJECT_NAME":"FENGYUN 1C DEB","OBJECT_ID":"1999-025EJQ","EPOCH":"2026-03-08T21:27:56.444256","MEAN_MOTION":15.23229897,"ECCENTRICITY":0.00101559,"INCLINATION":98.6645,"RA_OF_ASC_NODE":227.592,"ARG_OF_PERICENTER":263.6857,"MEAN_ANOMALY":96.3219,"EPHEMERIS_TYPE":0,"CLASSIFICATION_TYPE":"U","NORAD_CAT_ID":37470,"ELEMENT_SET_NO":999,"REV_AT_EPOCH":66762,"BSTAR":0.011057202,"MEAN_MOTION_DOT":0.00271626,"MEAN_MOTION_DDOT":0}]
